{
    "type": "FeatureCollection",
    "features": [
        {
            "type": "Feature",
            "properties": {
                "filename": "DJI_0018.JPG",
                "latitude": 46.8426070833333,
                "longitude": -91.9945598888889,
                "altitude_m": 39.8,
                "yaw_deg": 45.0
            },
            "geometry": {
                "type": "Polygon",
                "coordinates": [
                    [
                        [
                            -91.9946799,
                            46.8429184,
                            161.88
                        ],
                        [
                            -91.9941064,
                            46.8425162,
                            161.62
                        ],
                        [
                            -91.9944388,
                            46.8422971,
                            161.88
                        ],
                        [
                            -91.9950085,
                            46.8426981,
                            161.88
                        ],
                        [
                            -91.9946799,
                            46.8429184,
                            161.88
                        ]
                    ]
                ]
            }
        },
        {
            "type": "Feature",
            "properties": {
                "filename": "DJI_0019.JPG",
                "latitude": 46.8426906666667,
                "longitude": -91.9944272777778,
                "altitude_m": 40.1,
                "yaw_deg": 42.8
            },
            "geometry": {
                "type": "Polygon",
                "coordinates": [
                    [
                        [
                            -91.9945658,
                            46.8430012,
                            161.88
                        ],
                        [
                            -91.9939819,
                            46.842614,
                            163.0
                        ],
                        [
                            -91.9942901,
                            46.8423866,
                            162.48
                        ],
                        [
                            -91.9948844,
                            46.8427704,
                            161.88
                        ],
                        [
                            -91.9945658,
                            46.8430012,
                            161.88
                        ]
                    ]
                ]
            }
        },
        {
            "type": "Feature",
            "properties": {
                "filename": "DJI_0020.JPG",
                "latitude": 46.8427775833333,
                "longitude": -91.9942993888889,
                "altitude_m": 40.1,
                "yaw_deg": 44.2
            },
            "geometry": {
                "type": "Polygon",
                "coordinates": [
                    [
                        [
                            -91.9944268,
                            46.8430903,
                            161.88
                        ],
                        [
                            -91.9938523,
                            46.8426926,
                            162.62
                        ],
                        [
                            -91.9941727,
                            46.8424703,
                            162.33
                        ],
                        [
                            -91.9947535,
                            46.842865,
                            161.88
                        ],
                        [
                            -91.9944268,
                            46.8430903,
                            161.88
                        ]
                    ]
                ]
            }
        },
        {
            "type": "Feature",
            "properties": {
                "filename": "DJI_0021.JPG",
                "latitude": 46.8428651388889,
                "longitude": -91.9941766388889,
                "altitude_m": 40.1,
                "yaw_deg": 45.0
            },
            "geometry": {
                "type": "Polygon",
                "coordinates": [
                    [
                        [
                            -91.9942982,
                            46.8431784,
                            161.88
                        ],
                        [
                            -91.9937338,
                            46.8427759,
                            162.75
                        ],
                        [
                            -91.9940567,
                            46.842556,
                            162.37
                        ],
                        [
                            -91.9946299,
                            46.8429565,
                            161.88
                        ],
                        [
                            -91.9942982,
                            46.8431784,
                            161.88
                        ]
                    ]
                ]
            }
        },
        {
            "type": "Feature",
            "properties": {
                "filename": "DJI_0022.JPG",
                "latitude": 46.8429515833333,
                "longitude": -91.9940517222222,
                "altitude_m": 40.0,
                "yaw_deg": 45.3
            },
            "geometry": {
                "type": "Polygon",
                "coordinates": [
                    [
                        [
                            -91.9941706,
                            46.8432644,
                            161.88
                        ],
                        [
                            -91.9936064,
                            46.84286,
                            162.32
                        ],
                        [
                            -91.9939364,
                            46.842648,
                            162.99
                        ],
                        [
                            -91.9945031,
                            46.8430444,
                            161.88
                        ],
                        [
                            -91.9941706,
                            46.8432644,
                            161.88
                        ]
                    ]
                ]
            }
        },
        {
            "type": "Feature",
            "properties": {
                "filename": "DJI_0023.JPG",
                "latitude": 46.8430380555556,
                "longitude": -91.9939230555556,
                "altitude_m": 40.0,
                "yaw_deg": 43.8
            },
            "geometry": {
                "type": "Polygon",
                "coordinates": [
                    [
                        [
                            -91.9940533,
                            46.8433493,
                            161.88
                        ],
                        [
                            -91.9934674,
                            46.8429538,
                            161.88
                        ],
                        [
                            -91.9937958,
                            46.8427373,
                            162.97
                        ],
                        [
                            -91.9943768,
                            46.843123,
                            161.88
                        ],
                        [
                            -91.9940533,
                            46.8433493,
                            161.88
                        ]
                    ]
                ]
            }
        },
        {
            "type": "Feature",
            "properties": {
                "filename": "DJI_0024.JPG",
                "latitude": 46.8428646111111,
                "longitude": -91.9936966666667,
                "altitude_m": 39.9,
                "yaw_deg": -140.0
            },
            "geometry": {
                "type": "Polygon",
                "coordinates": [
                    [
                        [
                            -91.9935339,
                            46.8425548,
                            161.15
                        ],
                        [
                            -91.9941708,
                            46.8429295,
                            160.9
                        ],
                        [
                            -91.9938571,
                            46.8431671,
                            161.88
                        ],
                        [
                            -91.993237,
                            46.8428006,
                            161.88
                        ],
                        [
                            -91.9935339,
                            46.8425548,
                            161.15
                        ]
                    ]
                ]
            }
        },
        {
            "type": "Feature",
            "properties": {
                "filename": "DJI_0025.JPG",
                "latitude": 46.8427738611111,
                "longitude": -91.9938259444444,
                "altitude_m": 40.0,
                "yaw_deg": -132.0
            },
            "geometry": {
                "type": "Polygon",
                "coordinates": [
                    [
                        [
                            -91.9937271,
                            46.8424498,
                            161.03
                        ],
                        [
                            -91.9942788,
                            46.8428826,
                            161.24
                        ],
                        [
                            -91.9939237,
                            46.8430895,
                            161.88
                        ],
                        [
                            -91.9933635,
                            46.8426617,
                            160.31
                        ],
                        [
                            -91.9937271,
                            46.8424498,
                            161.03
                        ]
                    ]
                ]
            }
        },
        {
            "type": "Feature",
            "properties": {
                "filename": "DJI_0026.JPG",
                "latitude": 46.84269025,
                "longitude": -91.9939543888889,
                "altitude_m": 40.1,
                "yaw_deg": -132.0
            },
            "geometry": {
                "type": "Polygon",
                "coordinates": [
                    [
                        [
                            -91.9938546,
                            46.842363,
                            160.75
                        ],
                        [
                            -91.994393,
                            46.8427956,
                            162.49
                        ],
                        [
                            -91.9940524,
                            46.8430068,
                            161.88
                        ],
                        [
                            -91.9934995,
                            46.8425799,
                            161.0
                        ],
                        [
                            -91.9938546,
                            46.842363,
                            160.75
                        ]
                    ]
                ]
            }
        },
        {
            "type": "Feature",
            "properties": {
                "filename": "DJI_0027.JPG",
                "latitude": 46.8426053888889,
                "longitude": -91.9940827777778,
                "altitude_m": 40.0,
                "yaw_deg": -131.3
            },
            "geometry": {
                "type": "Polygon",
                "coordinates": [
                    [
                        [
                            -91.9939839,
                            46.8422604,
                            158.68
                        ],
                        [
                            -91.9945263,
                            46.8427161,
                            161.88
                        ],
                        [
                            -91.994177,
                            46.8429292,
                            160.99
                        ],
                        [
                            -91.9936325,
                            46.8424919,
                            161.12
                        ],
                        [
                            -91.9939839,
                            46.8422604,
                            158.68
                        ]
                    ]
                ]
            }
        },
        {
            "type": "Feature",
            "properties": {
                "filename": "DJI_0028.JPG",
                "latitude": 46.84252125,
                "longitude": -91.9942096111111,
                "altitude_m": 40.1,
                "yaw_deg": -133.5
            },
            "geometry": {
                "type": "Polygon",
                "coordinates": [
                    [
                        [
                            -91.9940934,
                            46.8421845,
                            159.45
                        ],
                        [
                            -91.9946602,
                            46.8426204,
                            161.88
                        ],
                        [
                            -91.9943164,
                            46.8428266,
                            162.97
                        ],
                        [
                            -91.9937492,
                            46.8424188,
                            160.88
                        ],
                        [
                            -91.9940934,
                            46.8421845,
                            159.45
                        ]
                    ]
                ]
            }
        },
        {
            "type": "Feature",
            "properties": {
                "filename": "DJI_0029.JPG",
                "latitude": 46.8424339166667,
                "longitude": -91.9943333888889,
                "altitude_m": 40.1,
                "yaw_deg": -131.4
            },
            "geometry": {
                "type": "Polygon",
                "coordinates": [
                    [
                        [
                            -91.9942413,
                            46.8421154,
                            161.88
                        ],
                        [
                            -91.9947784,
                            46.8425444,
                            161.88
                        ],
                        [
                            -91.9944115,
                            46.8426998,
                            168.24
                        ],
                        [
                            -91.9938784,
                            46.8423199,
                            160.89
                        ],
                        [
                            -91.9942413,
                            46.8421154,
                            161.88
                        ]
                    ]
                ]
            }
        },
        {
            "type": "Feature",
            "properties": {
                "filename": "DJI_0030.JPG",
                "latitude": 46.8422816111111,
                "longitude": -91.9940841666667,
                "altitude_m": 40.1,
                "yaw_deg": 44.2
            },
            "geometry": {
                "type": "Polygon",
                "coordinates": [
                    [
                        [
                            -91.9942068,
                            46.8425825,
                            163.26
                        ],
                        [
                            -91.9935983,
                            46.8421892,
                            161.88
                        ],
                        [
                            -91.9939558,
                            46.8419702,
                            161.88
                        ],
                        [
                            -91.9945383,
                            46.842369,
                            161.88
                        ],
                        [
                            -91.9942068,
                            46.8425825,
                            163.26
                        ]
                    ]
                ]
            }
        },
        {
            "type": "Feature",
            "properties": {
                "filename": "DJI_0031.JPG",
                "latitude": 46.8423714722222,
                "longitude": -91.9939535555555,
                "altitude_m": 40.2,
                "yaw_deg": 41.4
            },
            "geometry": {
                "type": "Polygon",
                "coordinates": [
                    [
                        [
                            -91.9940976,
                            46.8426682,
                            163.35
                        ],
                        [
                            -91.9934608,
                            46.8422954,
                            161.88
                        ],
                        [
                            -91.9938027,
                            46.8420639,
                            161.88
                        ],
                        [
                            -91.9944025,
                            46.8424418,
                            162.83
                        ],
                        [
                            -91.9940976,
                            46.8426682,
                            163.35
                        ]
                    ]
                ]
            }
        },
        {
            "type": "Feature",
            "properties": {
                "filename": "DJI_0032.JPG",
                "latitude": 46.8424584444444,
                "longitude": -91.9938293055556,
                "altitude_m": 40.1,
                "yaw_deg": 42.0
            },
            "geometry": {
                "type": "Polygon",
                "coordinates": [
                    [
                        [
                            -91.9939684,
                            46.8427554,
                            163.35
                        ],
                        [
                            -91.9933485,
                            46.8423805,
                            158.0
                        ],
                        [
                            -91.9936836,
                            46.8421507,
                            161.88
                        ],
                        [
                            -91.9942721,
                            46.8425312,
                            163.14
                        ],
                        [
                            -91.9939684,
                            46.8427554,
                            163.35
                        ]
                    ]
                ]
            }
        },
        {
            "type": "Feature",
            "properties": {
                "filename": "DJI_0033.JPG",
                "latitude": 46.84254325,
                "longitude": -91.9937026944445,
                "altitude_m": 40.1,
                "yaw_deg": 42.9
            },
            "geometry": {
                "type": "Polygon",
                "coordinates": [
                    [
                        [
                            -91.9938359,
                            46.8428437,
                            163.12
                        ],
                        [
                            -91.9932439,
                            46.8424637,
                            161.88
                        ],
                        [
                            -91.9935579,
                            46.8422203,
                            157.44
                        ],
                        [
                            -91.9941415,
                            46.8426204,
                            163.29
                        ],
                        [
                            -91.9938359,
                            46.8428437,
                            163.12
                        ]
                    ]
                ]
            }
        },
        {
            "type": "Feature",
            "properties": {
                "filename": "DJI_0034.JPG",
                "latitude": 46.8426292777778,
                "longitude": -91.9935786666667,
                "altitude_m": 40.0,
                "yaw_deg": 44.7
            },
            "geometry": {
                "type": "Polygon",
                "coordinates": [
                    [
                        [
                            -91.9937018,
                            46.8429419,
                            161.88
                        ],
                        [
                            -91.993125,
                            46.8425401,
                            161.88
                        ],
                        [
                            -91.993449,
                            46.842304,
                            157.33
                        ],
                        [
                            -91.9940118,
                            46.8427154,
                            163.37
                        ],
                        [
                            -91.9937018,
                            46.8429419,
                            161.88
                        ]
                    ]
                ]
            }
        },
        {
            "type": "Feature",
            "properties": {
                "filename": "DJI_0035.JPG",
                "latitude": 46.8427165555556,
                "longitude": -91.9934553055556,
                "altitude_m": 40.0,
                "yaw_deg": 45.3
            },
            "geometry": {
                "type": "Polygon",
                "coordinates": [
                    [
                        [
                            -91.9935736,
                            46.84303,
                            161.88
                        ],
                        [
                            -91.993003,
                            46.8426241,
                            161.88
                        ],
                        [
                            -91.9933318,
                            46.8423934,
                            158.07
                        ],
                        [
                            -91.9938886,
                            46.8428061,
                            163.26
                        ],
                        [
                            -91.9935736,
                            46.84303,
                            161.88
                        ]
                    ]
                ]
            }
        }
    ]
}