{
    "type": "FeatureCollection",
    "features": [
        {
            "type": "Feature",
            "properties": {
                "filename": "DJI_0018.JPG",
                "latitude": 46.8426070833333,
                "longitude": -91.9945598888889,
                "altitude_m": 39.8,
                "yaw_deg": 45.0
            },
            "geometry": {
                "type": "Polygon",
                "coordinates": [
                    [
                        [
                            -91.994679946895,
                            46.842918434402286
                        ],
                        [
                            -91.99410636379847,
                            46.842516160448646
                        ],
                        [
                            -91.99443883995805,
                            46.842297052400404
                        ],
                        [
                            -91.99500847623281,
                            46.84269805179059
                        ],
                        [
                            -91.994679946895,
                            46.842918434402286
                        ]
                    ]
                ]
            }
        },
        {
            "type": "Feature",
            "properties": {
                "filename": "DJI_0019.JPG",
                "latitude": 46.8426906666667,
                "longitude": -91.9944272777778,
                "altitude_m": 40.1,
                "yaw_deg": 42.8
            },
            "geometry": {
                "type": "Polygon",
                "coordinates": [
                    [
                        [
                            -91.99456579663733,
                            46.84300116129387
                        ],
                        [
                            -91.99398187125126,
                            46.842613972597746
                        ],
                        [
                            -91.99429013017311,
                            46.84238661618066
                        ],
                        [
                            -91.99488435638173,
                            46.84277040376623
                        ],
                        [
                            -91.99456579663733,
                            46.84300116129387
                        ]
                    ]
                ]
            }
        },
        {
            "type": "Feature",
            "properties": {
                "filename": "DJI_0020.JPG",
                "latitude": 46.8427775833333,
                "longitude": -91.9942993888889,
                "altitude_m": 40.1,
                "yaw_deg": 44.2
            },
            "geometry": {
                "type": "Polygon",
                "coordinates": [
                    [
                        [
                            -91.99442680998052,
                            46.843090307592355
                        ],
                        [
                            -91.99385234225964,
                            46.842692588462775
                        ],
                        [
                            -91.99417268643438,
                            46.84247029932679
                        ],
                        [
                            -91.9947534923862,
                            46.8428649597879
                        ],
                        [
                            -91.99442680998052,
                            46.843090307592355
                        ]
                    ]
                ]
            }
        },
        {
            "type": "Feature",
            "properties": {
                "filename": "DJI_0021.JPG",
                "latitude": 46.8428651388889,
                "longitude": -91.9941766388889,
                "altitude_m": 40.1,
                "yaw_deg": 45.0
            },
            "geometry": {
                "type": "Polygon",
                "coordinates": [
                    [
                        [
                            -91.99429818380563,
                            46.84317838708119
                        ],
                        [
                            -91.99373382111541,
                            46.84277585022312
                        ],
                        [
                            -91.9940566956413,
                            46.84255601492058
                        ],
                        [
                            -91.99462990191086,
                            46.84295653163253
                        ],
                        [
                            -91.99429818380563,
                            46.84317838708119
                        ]
                    ]
                ]
            }
        },
        {
            "type": "Feature",
            "properties": {
                "filename": "DJI_0022.JPG",
                "latitude": 46.8429515833333,
                "longitude": -91.9940517222222,
                "altitude_m": 40.0,
                "yaw_deg": 45.3
            },
            "geometry": {
                "type": "Polygon",
                "coordinates": [
                    [
                        [
                            -91.9941705502625,
                            46.84326441026984
                        ],
                        [
                            -91.99360635420642,
                            46.84286003909436
                        ],
                        [
                            -91.99393642529535,
                            46.84264804888739
                        ],
                        [
                            -91.99450305038005,
                            46.843044350583654
                        ],
                        [
                            -91.9941705502625,
                            46.84326441026984
                        ]
                    ]
                ]
            }
        },
        {
            "type": "Feature",
            "properties": {
                "filename": "DJI_0023.JPG",
                "latitude": 46.8430380555556,
                "longitude": -91.9939230555556,
                "altitude_m": 40.0,
                "yaw_deg": 43.8
            },
            "geometry": {
                "type": "Polygon",
                "coordinates": [
                    [
                        [
                            -91.99405329830473,
                            46.84334931274419
                        ],
                        [
                            -91.99346737301137,
                            46.84295376349557
                        ],
                        [
                            -91.99379575452708,
                            46.84273734590853
                        ],
                        [
                            -91.9943768002071,
                            46.843123024221455
                        ],
                        [
                            -91.99405329830473,
                            46.84334931274419
                        ]
                    ]
                ]
            }
        },
        {
            "type": "Feature",
            "properties": {
                "filename": "DJI_0024.JPG",
                "latitude": 46.8428646111111,
                "longitude": -91.9936966666667,
                "altitude_m": 39.9,
                "yaw_deg": -140.0
            },
            "geometry": {
                "type": "Polygon",
                "coordinates": [
                    [
                        [
                            -91.99353391804023,
                            46.84255475866931
                        ],
                        [
                            -91.99417082780221,
                            46.84292954800081
                        ],
                        [
                            -91.99385707128697,
                            46.84316705181426
                        ],
                        [
                            -91.99323697368177,
                            46.84280063527527
                        ],
                        [
                            -91.99353391804023,
                            46.84255475866931
                        ]
                    ]
                ]
            }
        },
        {
            "type": "Feature",
            "properties": {
                "filename": "DJI_0025.JPG",
                "latitude": 46.8427738611111,
                "longitude": -91.9938259444444,
                "altitude_m": 40.0,
                "yaw_deg": -132.0
            },
            "geometry": {
                "type": "Polygon",
                "coordinates": [
                    [
                        [
                            -91.99372712277302,
                            46.84244983288281
                        ],
                        [
                            -91.99427875694134,
                            46.84288258998235
                        ],
                        [
                            -91.99392371121826,
                            46.84308953770143
                        ],
                        [
                            -91.99336346424566,
                            46.84266170208555
                        ],
                        [
                            -91.99372712277302,
                            46.84244983288281
                        ]
                    ]
                ]
            }
        },
        {
            "type": "Feature",
            "properties": {
                "filename": "DJI_0026.JPG",
                "latitude": 46.84269025,
                "longitude": -91.9939543888889,
                "altitude_m": 40.1,
                "yaw_deg": -132.0
            },
            "geometry": {
                "type": "Polygon",
                "coordinates": [
                    [
                        [
                            -91.99385458487683,
                            46.84236300292277
                        ],
                        [
                            -91.99439297870235,
                            46.84279556337546
                        ],
                        [
                            -91.9940524230986,
                            46.84300678802413
                        ],
                        [
                            -91.99349948077567,
                            46.842579927755686
                        ],
                        [
                            -91.99385458487683,
                            46.84236300292277
                        ]
                    ]
                ]
            }
        },
        {
            "type": "Feature",
            "properties": {
                "filename": "DJI_0027.JPG",
                "latitude": 46.8426053888889,
                "longitude": -91.9940827777778,
                "altitude_m": 40.0,
                "yaw_deg": -131.3
            },
            "geometry": {
                "type": "Polygon",
                "coordinates": [
                    [
                        [
                            -91.99398394851498,
                            46.84226036776899
                        ],
                        [
                            -91.99452630029512,
                            46.84271607779417
                        ],
                        [
                            -91.9941770467002,
                            46.84292917310548
                        ],
                        [
                            -91.99363253048537,
                            46.84249193280631
                        ],
                        [
                            -91.99398394851498,
                            46.84226036776899
                        ]
                    ]
                ]
            }
        },
        {
            "type": "Feature",
            "properties": {
                "filename": "DJI_0028.JPG",
                "latitude": 46.84252125,
                "longitude": -91.9942096111111,
                "altitude_m": 40.1,
                "yaw_deg": -133.5
            },
            "geometry": {
                "type": "Polygon",
                "coordinates": [
                    [
                        [
                            -91.99409340818889,
                            46.842184466990545
                        ],
                        [
                            -91.99466022524835,
                            46.842620444306995
                        ],
                        [
                            -91.99431642784273,
                            46.84282659660123
                        ],
                        [
                            -91.99374917432186,
                            46.84241880891397
                        ],
                        [
                            -91.99409340818889,
                            46.842184466990545
                        ]
                    ]
                ]
            }
        },
        {
            "type": "Feature",
            "properties": {
                "filename": "DJI_0029.JPG",
                "latitude": 46.8424339166667,
                "longitude": -91.9943333888889,
                "altitude_m": 40.1,
                "yaw_deg": -131.4
            },
            "geometry": {
                "type": "Polygon",
                "coordinates": [
                    [
                        [
                            -91.99424131044395,
                            46.84211540638282
                        ],
                        [
                            -91.99477840261495,
                            46.842544373909014
                        ],
                        [
                            -91.99441151820685,
                            46.84269984619846
                        ],
                        [
                            -91.99387836804074,
                            46.84231987649771
                        ],
                        [
                            -91.99424131044395,
                            46.84211540638282
                        ]
                    ]
                ]
            }
        },
        {
            "type": "Feature",
            "properties": {
                "filename": "DJI_0030.JPG",
                "latitude": 46.8422816111111,
                "longitude": -91.9940841666667,
                "altitude_m": 40.1,
                "yaw_deg": 44.2
            },
            "geometry": {
                "type": "Polygon",
                "coordinates": [
                    [
                        [
                            -91.99420676211564,
                            46.842582497919175
                        ],
                        [
                            -91.9935982827503,
                            46.842189230390446
                        ],
                        [
                            -91.99395577612908,
                            46.841970227045046
                        ],
                        [
                            -91.99453826563456,
                            46.842368988392046
                        ],
                        [
                            -91.99420676211564,
                            46.842582497919175
                        ]
                    ]
                ]
            }
        },
        {
            "type": "Feature",
            "properties": {
                "filename": "DJI_0031.JPG",
                "latitude": 46.8423714722222,
                "longitude": -91.9939535555555,
                "altitude_m": 40.2,
                "yaw_deg": 41.4
            },
            "geometry": {
                "type": "Polygon",
                "coordinates": [
                    [
                        [
                            -91.99409758599741,
                            46.84266822216094
                        ],
                        [
                            -91.99346079757458,
                            46.84229535216494
                        ],
                        [
                            -91.99380274139294,
                            46.842063928486695
                        ],
                        [
                            -91.99440247763783,
                            46.84244182353575
                        ],
                        [
                            -91.99409758599741,
                            46.84266822216094
                        ]
                    ]
                ]
            }
        },
        {
            "type": "Feature",
            "properties": {
                "filename": "DJI_0032.JPG",
                "latitude": 46.8424584444444,
                "longitude": -91.9938293055556,
                "altitude_m": 40.1,
                "yaw_deg": 42.0
            },
            "geometry": {
                "type": "Polygon",
                "coordinates": [
                    [
                        [
                            -91.99396840464323,
                            46.84275537177365
                        ],
                        [
                            -91.99334846420712,
                            46.84238052591583
                        ],
                        [
                            -91.99368359024635,
                            46.84215067144449
                        ],
                        [
                            -91.9942721073143,
                            46.84253119290045
                        ],
                        [
                            -91.99396840464323,
                            46.84275537177365
                        ]
                    ]
                ]
            }
        },
        {
            "type": "Feature",
            "properties": {
                "filename": "DJI_0033.JPG",
                "latitude": 46.84254325,
                "longitude": -91.9937026944445,
                "altitude_m": 40.1,
                "yaw_deg": 42.9
            },
            "geometry": {
                "type": "Polygon",
                "coordinates": [
                    [
                        [
                            -91.99383588539109,
                            46.842843685161185
                        ],
                        [
                            -91.99324389430096,
                            46.8424636620626
                        ],
                        [
                            -91.99355793885651,
                            46.84222032708517
                        ],
                        [
                            -91.99414152100357,
                            46.842620365989134
                        ],
                        [
                            -91.99383588539109,
                            46.842843685161185
                        ]
                    ]
                ]
            }
        },
        {
            "type": "Feature",
            "properties": {
                "filename": "DJI_0034.JPG",
                "latitude": 46.8426292777778,
                "longitude": -91.9935786666667,
                "altitude_m": 40.0,
                "yaw_deg": 44.7
            },
            "geometry": {
                "type": "Polygon",
                "coordinates": [
                    [
                        [
                            -91.99370176518549,
                            46.84294190065022
                        ],
                        [
                            -91.99312497397266,
                            46.8425400835799
                        ],
                        [
                            -91.99344900181693,
                            46.842303986879415
                        ],
                        [
                            -91.99401176865666,
                            46.84271542067634
                        ],
                        [
                            -91.99370176518549,
                            46.84294190065022
                        ]
                    ]
                ]
            }
        },
        {
            "type": "Feature",
            "properties": {
                "filename": "DJI_0035.JPG",
                "latitude": 46.8427165555556,
                "longitude": -91.9934553055556,
                "altitude_m": 40.0,
                "yaw_deg": 45.3
            },
            "geometry": {
                "type": "Polygon",
                "coordinates": [
                    [
                        [
                            -91.99357362569782,
                            46.84303004590905
                        ],
                        [
                            -91.99300299846715,
                            46.84262410582499
                        ],
                        [
                            -91.99333179427443,
                            46.84239344168262
                        ],
                        [
                            -91.99388855603462,
                            46.8428061134342
                        ],
                        [
                            -91.99357362569782,
                            46.84303004590905
                        ]
                    ]
                ]
            }
        }
    ]
}